STARLINK-36153          
1 66934U 25286K   25351.91668981 -.01322841  00000+0 -63923-2 0  9992
2 66934  53.1560  24.3914 0000687  91.3121 188.2953 15.84611365  2829
STARLINK-36127          
1 66935U 25286L   25351.91668981 -.01329341  00000+0 -64279-2 0  9990
2 66935  53.1560  24.3865 0000730  84.9501 197.1139 15.84611736  2821
STARLINK-36160          
1 66936U 25286M   25351.91668981 -.01337353  00000+0 -64670-2 0  9998
2 66936  53.1559  24.3824 0000732  91.8699 192.2847 15.84628141  2822
STARLINK-36165          
1 66937U 25286N   25351.91668981 -.01341865  00000+0 -64883-2 0  9998
2 66937  53.1559  24.3776 0000744  88.3663 197.9189 15.84639422  2829
STARLINK-36155          
1 66938U 25286P   25351.91668981 -.01325588  00000+0 -63978-2 0  9997
2 66938  53.1557  24.3730 0000752  75.2180 213.2020 15.84641653  2821
STARLINK-36154          
1 66939U 25286Q   25351.91668981 -.01361887  00000+0 -65908-2 0  9995
2 66939  53.1556  24.3635 0000867  84.6285 208.3683 15.84664425  2824
STARLINK-36121          
1 66940U 25286R   25351.91668981 -.01364925  00000+0 -66036-2 0  9996
2 66940  53.1554  24.3590 0000739  91.3804 203.6852 15.84678514  2824
STARLINK-36088          
1 66941U 25286S   25351.91668981 -.01343430  00000+0 -64963-2 0  9992
2 66941  53.1556  24.3677 0000699  87.3040 203.5441 15.84642073  2829
STARLINK-36100          
1 66942U 25286T   25351.91668981 -.01831332  00000+0 -87099-2 0  9991
2 66942  53.1553  24.3545 0000404  37.9832 259.2400 15.84942130  2757
STARLINK-36109          
1 66943U 25286U   25351.91668981 -.01378692  00000+0 -66767-2 0  9996
2 66943  53.1552  24.3493 0000740  93.7890 205.8919 15.84688629  2758
STARLINK-36112          
1 66944U 25286V   25351.91668981 -.01386762  00000+0 -67159-2 0  9990
2 66944  53.1553  24.3449 0000822  87.4501 214.2882 15.84705416  2826
STARLINK-36110          
1 66945U 25286W   25351.91668981 -.01395937  00000+0 -67664-2 0  9996
2 66945  53.1552  24.3397 0000768  89.7110 214.4396 15.84708004  2826
