CCSDS_OMM_VERS = 2.0
CREATION_DATE  = 
ORIGINATOR     = 

OBJECT_NAME    = STARLINK-36153
OBJECT_ID      = 2025-286K
CENTER_NAME    = EARTH
REF_FRAME      = TEME
TIME_SYSTEM    = UTC
MEAN_ELEMENT_THEORY = SGP/SGP4

EPOCH          = 2025-12-17T22:00:01.999584
MEAN_MOTION    = 15.84611365
ECCENTRICITY   = .00006878
INCLINATION    = 53.1560
RA_OF_ASC_NODE = 24.3914
ARG_OF_PERICENTER = 91.3121
MEAN_ANOMALY   = 188.2953

EPHEMERIS_TYPE = 0
CLASSIFICATION_TYPE = U
NORAD_CAT_ID   = 66934
ELEMENT_SET_NO = 999
REV_AT_EPOCH   = 282
BSTAR          = -.63923398E-2
MEAN_MOTION_DOT = -.1322841E-1
MEAN_MOTION_DDOT = 0

CCSDS_OMM_VERS = 2.0
CREATION_DATE  = 
ORIGINATOR     = 

OBJECT_NAME    = STARLINK-36127
OBJECT_ID      = 2025-286L
CENTER_NAME    = EARTH
REF_FRAME      = TEME
TIME_SYSTEM    = UTC
MEAN_ELEMENT_THEORY = SGP/SGP4

EPOCH          = 2025-12-17T22:00:01.999584
MEAN_MOTION    = 15.84611736
ECCENTRICITY   = .00007303
INCLINATION    = 53.1560
RA_OF_ASC_NODE = 24.3865
ARG_OF_PERICENTER = 84.9501
MEAN_ANOMALY   = 197.1139

EPHEMERIS_TYPE = 0
CLASSIFICATION_TYPE = U
NORAD_CAT_ID   = 66935
ELEMENT_SET_NO = 999
REV_AT_EPOCH   = 282
BSTAR          = -.64279127E-2
MEAN_MOTION_DOT = -.1329341E-1
MEAN_MOTION_DDOT = 0

CCSDS_OMM_VERS = 2.0
CREATION_DATE  = 
ORIGINATOR     = 

OBJECT_NAME    = STARLINK-36160
OBJECT_ID      = 2025-286M
CENTER_NAME    = EARTH
REF_FRAME      = TEME
TIME_SYSTEM    = UTC
MEAN_ELEMENT_THEORY = SGP/SGP4

EPOCH          = 2025-12-17T22:00:01.999584
MEAN_MOTION    = 15.84628141
ECCENTRICITY   = .00007322
INCLINATION    = 53.1559
RA_OF_ASC_NODE = 24.3824
ARG_OF_PERICENTER = 91.8699
MEAN_ANOMALY   = 192.2847

EPHEMERIS_TYPE = 0
CLASSIFICATION_TYPE = U
NORAD_CAT_ID   = 66936
ELEMENT_SET_NO = 999
REV_AT_EPOCH   = 282
BSTAR          = -.64669936E-2
MEAN_MOTION_DOT = -.1337353E-1
MEAN_MOTION_DDOT = 0

CCSDS_OMM_VERS = 2.0
CREATION_DATE  = 
ORIGINATOR     = 

OBJECT_NAME    = STARLINK-36165
OBJECT_ID      = 2025-286N
CENTER_NAME    = EARTH
REF_FRAME      = TEME
TIME_SYSTEM    = UTC
MEAN_ELEMENT_THEORY = SGP/SGP4

EPOCH          = 2025-12-17T22:00:01.999584
MEAN_MOTION    = 15.84639422
ECCENTRICITY   = .00007446
INCLINATION    = 53.1559
RA_OF_ASC_NODE = 24.3776
ARG_OF_PERICENTER = 88.3663
MEAN_ANOMALY   = 197.9189

EPHEMERIS_TYPE = 0
CLASSIFICATION_TYPE = U
NORAD_CAT_ID   = 66937
ELEMENT_SET_NO = 999
REV_AT_EPOCH   = 282
BSTAR          = -.64883265E-2
MEAN_MOTION_DOT = -.1341865E-1
MEAN_MOTION_DDOT = 0

CCSDS_OMM_VERS = 2.0
CREATION_DATE  = 
ORIGINATOR     = 

OBJECT_NAME    = STARLINK-36155
OBJECT_ID      = 2025-286P
CENTER_NAME    = EARTH
REF_FRAME      = TEME
TIME_SYSTEM    = UTC
MEAN_ELEMENT_THEORY = SGP/SGP4

EPOCH          = 2025-12-17T22:00:01.999584
MEAN_MOTION    = 15.84641653
ECCENTRICITY   = .00007525
INCLINATION    = 53.1557
RA_OF_ASC_NODE = 24.3730
ARG_OF_PERICENTER = 75.2180
MEAN_ANOMALY   = 213.2020

EPHEMERIS_TYPE = 0
CLASSIFICATION_TYPE = U
NORAD_CAT_ID   = 66938
ELEMENT_SET_NO = 999
REV_AT_EPOCH   = 282
BSTAR          = -.63978454E-2
MEAN_MOTION_DOT = -.1325588E-1
MEAN_MOTION_DDOT = 0

CCSDS_OMM_VERS = 2.0
CREATION_DATE  = 
ORIGINATOR     = 

OBJECT_NAME    = STARLINK-36154
OBJECT_ID      = 2025-286Q
CENTER_NAME    = EARTH
REF_FRAME      = TEME
TIME_SYSTEM    = UTC
MEAN_ELEMENT_THEORY = SGP/SGP4

EPOCH          = 2025-12-17T22:00:01.999584
MEAN_MOTION    = 15.84664425
ECCENTRICITY   = .00008675
INCLINATION    = 53.1556
RA_OF_ASC_NODE = 24.3635
ARG_OF_PERICENTER = 84.6285
MEAN_ANOMALY   = 208.3683

EPHEMERIS_TYPE = 0
CLASSIFICATION_TYPE = U
NORAD_CAT_ID   = 66939
ELEMENT_SET_NO = 999
REV_AT_EPOCH   = 282
BSTAR          = -.65907546E-2
MEAN_MOTION_DOT = -.1361887E-1
MEAN_MOTION_DDOT = 0

CCSDS_OMM_VERS = 2.0
CREATION_DATE  = 
ORIGINATOR     = 

OBJECT_NAME    = STARLINK-36121
OBJECT_ID      = 2025-286R
CENTER_NAME    = EARTH
REF_FRAME      = TEME
TIME_SYSTEM    = UTC
MEAN_ELEMENT_THEORY = SGP/SGP4

EPOCH          = 2025-12-17T22:00:01.999584
MEAN_MOTION    = 15.84678514
ECCENTRICITY   = .0000739
INCLINATION    = 53.1554
RA_OF_ASC_NODE = 24.3590
ARG_OF_PERICENTER = 91.3804
MEAN_ANOMALY   = 203.6852

EPHEMERIS_TYPE = 0
CLASSIFICATION_TYPE = U
NORAD_CAT_ID   = 66940
ELEMENT_SET_NO = 999
REV_AT_EPOCH   = 282
BSTAR          = -.66035536E-2
MEAN_MOTION_DOT = -.1364925E-1
MEAN_MOTION_DDOT = 0

CCSDS_OMM_VERS = 2.0
CREATION_DATE  = 
ORIGINATOR     = 

OBJECT_NAME    = STARLINK-36088
OBJECT_ID      = 2025-286S
CENTER_NAME    = EARTH
REF_FRAME      = TEME
TIME_SYSTEM    = UTC
MEAN_ELEMENT_THEORY = SGP/SGP4

EPOCH          = 2025-12-17T22:00:01.999584
MEAN_MOTION    = 15.84642073
ECCENTRICITY   = .00006997
INCLINATION    = 53.1556
RA_OF_ASC_NODE = 24.3677
ARG_OF_PERICENTER = 87.3040
MEAN_ANOMALY   = 203.5441

EPHEMERIS_TYPE = 0
CLASSIFICATION_TYPE = U
NORAD_CAT_ID   = 66941
ELEMENT_SET_NO = 999
REV_AT_EPOCH   = 282
BSTAR          = -.64962939E-2
MEAN_MOTION_DOT = -.134343E-1
MEAN_MOTION_DDOT = 0

CCSDS_OMM_VERS = 2.0
CREATION_DATE  = 
ORIGINATOR     = 

OBJECT_NAME    = STARLINK-36100
OBJECT_ID      = 2025-286T
CENTER_NAME    = EARTH
REF_FRAME      = TEME
TIME_SYSTEM    = UTC
MEAN_ELEMENT_THEORY = SGP/SGP4

EPOCH          = 2025-12-17T22:00:01.999584
MEAN_MOTION    = 15.84942130
ECCENTRICITY   = .0000404
INCLINATION    = 53.1553
RA_OF_ASC_NODE = 24.3545
ARG_OF_PERICENTER = 37.9832
MEAN_ANOMALY   = 259.2400

EPHEMERIS_TYPE = 0
CLASSIFICATION_TYPE = U
NORAD_CAT_ID   = 66942
ELEMENT_SET_NO = 999
REV_AT_EPOCH   = 275
BSTAR          = -.87099304E-2
MEAN_MOTION_DOT = -.1831332E-1
MEAN_MOTION_DDOT = 0

CCSDS_OMM_VERS = 2.0
CREATION_DATE  = 
ORIGINATOR     = 

OBJECT_NAME    = STARLINK-36109
OBJECT_ID      = 2025-286U
CENTER_NAME    = EARTH
REF_FRAME      = TEME
TIME_SYSTEM    = UTC
MEAN_ELEMENT_THEORY = SGP/SGP4

EPOCH          = 2025-12-17T22:00:01.999584
MEAN_MOTION    = 15.84688629
ECCENTRICITY   = .00007407
INCLINATION    = 53.1552
RA_OF_ASC_NODE = 24.3493
ARG_OF_PERICENTER = 93.7890
MEAN_ANOMALY   = 205.8919

EPHEMERIS_TYPE = 0
CLASSIFICATION_TYPE = U
NORAD_CAT_ID   = 66943
ELEMENT_SET_NO = 999
REV_AT_EPOCH   = 275
BSTAR          = -.66767329E-2
MEAN_MOTION_DOT = -.1378692E-1
MEAN_MOTION_DDOT = 0

CCSDS_OMM_VERS = 2.0
CREATION_DATE  = 
ORIGINATOR     = 

OBJECT_NAME    = STARLINK-36112
OBJECT_ID      = 2025-286V
CENTER_NAME    = EARTH
REF_FRAME      = TEME
TIME_SYSTEM    = UTC
MEAN_ELEMENT_THEORY = SGP/SGP4

EPOCH          = 2025-12-17T22:00:01.999584
MEAN_MOTION    = 15.84705416
ECCENTRICITY   = .0000822
INCLINATION    = 53.1553
RA_OF_ASC_NODE = 24.3449
ARG_OF_PERICENTER = 87.4501
MEAN_ANOMALY   = 214.2882

EPHEMERIS_TYPE = 0
CLASSIFICATION_TYPE = U
NORAD_CAT_ID   = 66944
ELEMENT_SET_NO = 999
REV_AT_EPOCH   = 282
BSTAR          = -.67158617E-2
MEAN_MOTION_DOT = -.1386762E-1
MEAN_MOTION_DDOT = 0

CCSDS_OMM_VERS = 2.0
CREATION_DATE  = 
ORIGINATOR     = 

OBJECT_NAME    = STARLINK-36110
OBJECT_ID      = 2025-286W
CENTER_NAME    = EARTH
REF_FRAME      = TEME
TIME_SYSTEM    = UTC
MEAN_ELEMENT_THEORY = SGP/SGP4

EPOCH          = 2025-12-17T22:00:01.999584
MEAN_MOTION    = 15.84708004
ECCENTRICITY   = .0000768
INCLINATION    = 53.1552
RA_OF_ASC_NODE = 24.3397
ARG_OF_PERICENTER = 89.7110
MEAN_ANOMALY   = 214.4396

EPHEMERIS_TYPE = 0
CLASSIFICATION_TYPE = U
NORAD_CAT_ID   = 66945
ELEMENT_SET_NO = 999
REV_AT_EPOCH   = 282
BSTAR          = -.67663547E-2
MEAN_MOTION_DOT = -.1395937E-1
MEAN_MOTION_DDOT = 0

